{
    "links": {
        "self": "http://www.neowsapp.com/rest/v1/neo/54088801?api_key=iIulBulltgU6a56xZRHN4H3l9WmuAYTsLGpBGhQ2"
    },
    "id": "54088801",
    "neo_reference_id": "54088801",
    "name": "(2020 VN6)",
    "designation": "2020 VN6",
    "nasa_jpl_url": "http://ssd.jpl.nasa.gov/sbdb.cgi?sstr=54088801",
    "absolute_magnitude_h": 27.764,
    "estimated_diameter": {
        "kilometers": {
            "estimated_diameter_min": 0.0074431192,
            "estimated_diameter_max": 0.0166433206
        },
        "meters": {
            "estimated_diameter_min": 7.4431192415,
            "estimated_diameter_max": 16.6433205887
        },
        "miles": {
            "estimated_diameter_min": 0.0046249384,
            "estimated_diameter_max": 0.0103416768
        },
        "feet": {
            "estimated_diameter_min": 24.4196833324,
            "estimated_diameter_max": 54.6040719203
        }
    },
    "is_potentially_hazardous_asteroid": false,
    "close_approach_data": [
        {
            "close_approach_date": "2020-11-11",
            "close_approach_date_full": "2020-Nov-11 04:40",
            "epoch_date_close_approach": 1605069600000,
            "relative_velocity": {
                "kilometers_per_second": "10.2604069935",
                "kilometers_per_hour": "36937.4651766446",
                "miles_per_hour": "22951.5044037879"
            },
            "miss_distance": {
                "astronomical": "0.0190951693",
                "lunar": "7.4280208577",
                "kilometers": "2856596.654569391",
                "miles": "1775006.8529879558"
            },
            "orbiting_body": "Earth"
        }
    ],
    "orbital_data": {
        "orbit_id": "4",
        "orbit_determination_date": "2020-11-21 05:21:19",
        "first_observation_date": "2020-11-15",
        "last_observation_date": "2020-11-21",
        "data_arc_in_days": 6,
        "observations_used": 21,
        "orbit_uncertainty": "8",
        "minimum_orbit_intersection": "2.54331E-5",
        "jupiter_tisserand_invariant": "3.243",
        "epoch_osculation": "2459171.5",
        "eccentricity": ".6029499933664156",
        "semi_major_axis": "2.412542897593487",
        "inclination": "1.770074767211545",
        "ascending_node_longitude": "224.4046608929202",
        "orbital_period": "1368.708591372787",
        "perihelion_distance": ".957900173493301",
        "perihelion_argument": "155.6413690440275",
        "aphelion_distance": "3.867185621693674",
        "perihelion_time": "2459142.939680508817",
        "mean_anomaly": "7.511982522527696",
        "mean_motion": ".2630216557922875",
        "equinox": "J2000",
        "orbit_class": {
            "orbit_class_type": "APO",
            "orbit_class_description": "Near-Earth asteroid orbits which cross the Earth’s orbit similar to that of 1862 Apollo",
            "orbit_class_range": "a (semi-major axis) > 1.0 AU; q (perihelion) < 1.017 AU"
        }
    },
    "is_sentry_object": false
}